<?xml version="1.0" encoding="UTF-8"?>
<ndm xmlns:xsi="http://www.w3.org/2001/XMLSchema-instance" xsi:noNamespaceSchemaLocation="https://sanaregistry.org/r/ndmxml_unqualified/ndmxml-2.0.0-master-2.0.xsd">
<omm id="CCSDS_OMM_VERS" version="2.0">
<header><CREATION_DATE/><ORIGINATOR/></header><body><segment><metadata><OBJECT_NAME>KUIPER-00049</OBJECT_NAME><OBJECT_ID>2025-134K</OBJECT_ID><CENTER_NAME>EARTH</CENTER_NAME><REF_FRAME>TEME</REF_FRAME><TIME_SYSTEM>UTC</TIME_SYSTEM><MEAN_ELEMENT_THEORY>SGP4</MEAN_ELEMENT_THEORY></metadata><data><meanElements><EPOCH>2026-01-01T15:27:50.523264</EPOCH><MEAN_MOTION>14.79940903</MEAN_MOTION><ECCENTRICITY>.00030694</ECCENTRICITY><INCLINATION>51.8980</INCLINATION><RA_OF_ASC_NODE>165.5278</RA_OF_ASC_NODE><ARG_OF_PERICENTER>74.5761</ARG_OF_PERICENTER><MEAN_ANOMALY>285.5540</MEAN_ANOMALY></meanElements><tleParameters><EPHEMERIS_TYPE>0</EPHEMERIS_TYPE><CLASSIFICATION_TYPE>U</CLASSIFICATION_TYPE><NORAD_CAT_ID>64509</NORAD_CAT_ID><ELEMENT_SET_NO>999</ELEMENT_SET_NO><REV_AT_EPOCH>3020</REV_AT_EPOCH><BSTAR>.79737685E-3</BSTAR><MEAN_MOTION_DOT>.5864E-4</MEAN_MOTION_DOT><MEAN_MOTION_DDOT>0</MEAN_MOTION_DDOT></tleParameters></data></segment></body></omm>
<omm id="CCSDS_OMM_VERS" version="2.0">
<header><CREATION_DATE/><ORIGINATOR/></header><body><segment><metadata><OBJECT_NAME>KUIPER-00050</OBJECT_NAME><OBJECT_ID>2025-134L</OBJECT_ID><CENTER_NAME>EARTH</CENTER_NAME><REF_FRAME>TEME</REF_FRAME><TIME_SYSTEM>UTC</TIME_SYSTEM><MEAN_ELEMENT_THEORY>SGP4</MEAN_ELEMENT_THEORY></metadata><data><meanElements><EPOCH>2026-01-01T22:37:04.198944</EPOCH><MEAN_MOTION>14.96858261</MEAN_MOTION><ECCENTRICITY>.0005</ECCENTRICITY><INCLINATION>51.8885</INCLINATION><RA_OF_ASC_NODE>155.2702</RA_OF_ASC_NODE><ARG_OF_PERICENTER>96.6023</ARG_OF_PERICENTER><MEAN_ANOMALY>263.5516</MEAN_ANOMALY></meanElements><tleParameters><EPHEMERIS_TYPE>0</EPHEMERIS_TYPE><CLASSIFICATION_TYPE>U</CLASSIFICATION_TYPE><NORAD_CAT_ID>64510</NORAD_CAT_ID><ELEMENT_SET_NO>999</ELEMENT_SET_NO><REV_AT_EPOCH>3037</REV_AT_EPOCH><BSTAR>.84216E-3</BSTAR><MEAN_MOTION_DOT>.9516E-4</MEAN_MOTION_DOT><MEAN_MOTION_DDOT>0</MEAN_MOTION_DDOT></tleParameters></data></segment></body></omm>
<omm id="CCSDS_OMM_VERS" version="2.0">
<header><CREATION_DATE/><ORIGINATOR/></header><body><segment><metadata><OBJECT_NAME>KUIPER-00051</OBJECT_NAME><OBJECT_ID>2025-134M</OBJECT_ID><CENTER_NAME>EARTH</CENTER_NAME><REF_FRAME>TEME</REF_FRAME><TIME_SYSTEM>UTC</TIME_SYSTEM><MEAN_ELEMENT_THEORY>SGP4</MEAN_ELEMENT_THEORY></metadata><data><meanElements><EPOCH>2026-01-01T15:31:43.408416</EPOCH><MEAN_MOTION>14.79946417</MEAN_MOTION><ECCENTRICITY>.00025364</ECCENTRICITY><INCLINATION>51.8993</INCLINATION><RA_OF_ASC_NODE>163.0855</RA_OF_ASC_NODE><ARG_OF_PERICENTER>71.1194</ARG_OF_PERICENTER><MEAN_ANOMALY>289.0043</MEAN_ANOMALY></meanElements><tleParameters><EPHEMERIS_TYPE>0</EPHEMERIS_TYPE><CLASSIFICATION_TYPE>U</CLASSIFICATION_TYPE><NORAD_CAT_ID>64511</NORAD_CAT_ID><ELEMENT_SET_NO>999</ELEMENT_SET_NO><REV_AT_EPOCH>3023</REV_AT_EPOCH><BSTAR>.62616163E-3</BSTAR><MEAN_MOTION_DOT>.4557E-4</MEAN_MOTION_DOT><MEAN_MOTION_DDOT>0</MEAN_MOTION_DDOT></tleParameters></data></segment></body></omm>
<omm id="CCSDS_OMM_VERS" version="2.0">
<header><CREATION_DATE/><ORIGINATOR/></header><body><segment><metadata><OBJECT_NAME>KUIPER-00052</OBJECT_NAME><OBJECT_ID>2025-134N</OBJECT_ID><CENTER_NAME>EARTH</CENTER_NAME><REF_FRAME>TEME</REF_FRAME><TIME_SYSTEM>UTC</TIME_SYSTEM><MEAN_ELEMENT_THEORY>SGP4</MEAN_ELEMENT_THEORY></metadata><data><meanElements><EPOCH>2026-01-02T06:37:05.728800</EPOCH><MEAN_MOTION>15.76582001</MEAN_MOTION><ECCENTRICITY>.00021313</ECCENTRICITY><INCLINATION>51.8612</INCLINATION><RA_OF_ASC_NODE>89.8643</RA_OF_ASC_NODE><ARG_OF_PERICENTER>119.1004</ARG_OF_PERICENTER><MEAN_ANOMALY>241.0213</MEAN_ANOMALY></meanElements><tleParameters><EPHEMERIS_TYPE>0</EPHEMERIS_TYPE><CLASSIFICATION_TYPE>U</CLASSIFICATION_TYPE><NORAD_CAT_ID>64512</NORAD_CAT_ID><ELEMENT_SET_NO>999</ELEMENT_SET_NO><REV_AT_EPOCH>3129</REV_AT_EPOCH><BSTAR>.22442704E-2</BSTAR><MEAN_MOTION_DOT>.38171E-2</MEAN_MOTION_DOT><MEAN_MOTION_DDOT>0</MEAN_MOTION_DDOT></tleParameters></data></segment></body></omm>
<omm id="CCSDS_OMM_VERS" version="2.0">
<header><CREATION_DATE/><ORIGINATOR/></header><body><segment><metadata><OBJECT_NAME>KUIPER-00053</OBJECT_NAME><OBJECT_ID>2025-134P</OBJECT_ID><CENTER_NAME>EARTH</CENTER_NAME><REF_FRAME>TEME</REF_FRAME><TIME_SYSTEM>UTC</TIME_SYSTEM><MEAN_ELEMENT_THEORY>SGP4</MEAN_ELEMENT_THEORY></metadata><data><meanElements><EPOCH>2026-01-01T15:38:13.409376</EPOCH><MEAN_MOTION>14.79913936</MEAN_MOTION><ECCENTRICITY>.00005954</ECCENTRICITY><INCLINATION>51.9020</INCLINATION><RA_OF_ASC_NODE>159.5328</RA_OF_ASC_NODE><ARG_OF_PERICENTER>101.0310</ARG_OF_PERICENTER><MEAN_ANOMALY>259.0720</MEAN_ANOMALY></meanElements><tleParameters><EPHEMERIS_TYPE>0</EPHEMERIS_TYPE><CLASSIFICATION_TYPE>U</CLASSIFICATION_TYPE><NORAD_CAT_ID>64513</NORAD_CAT_ID><ELEMENT_SET_NO>999</ELEMENT_SET_NO><REV_AT_EPOCH>3028</REV_AT_EPOCH><BSTAR>.39538733E-3</BSTAR><MEAN_MOTION_DOT>.2793E-4</MEAN_MOTION_DOT><MEAN_MOTION_DDOT>0</MEAN_MOTION_DDOT></tleParameters></data></segment></body></omm>
<omm id="CCSDS_OMM_VERS" version="2.0">
<header><CREATION_DATE/><ORIGINATOR/></header><body><segment><metadata><OBJECT_NAME>KUIPER-00054</OBJECT_NAME><OBJECT_ID>2025-134Q</OBJECT_ID><CENTER_NAME>EARTH</CENTER_NAME><REF_FRAME>TEME</REF_FRAME><TIME_SYSTEM>UTC</TIME_SYSTEM><MEAN_ELEMENT_THEORY>SGP4</MEAN_ELEMENT_THEORY></metadata><data><meanElements><EPOCH>2026-01-01T22:13:50.509056</EPOCH><MEAN_MOTION>14.79777039</MEAN_MOTION><ECCENTRICITY>.00058328</ECCENTRICITY><INCLINATION>51.8975</INCLINATION><RA_OF_ASC_NODE>153.2956</RA_OF_ASC_NODE><ARG_OF_PERICENTER>90.7441</ARG_OF_PERICENTER><MEAN_ANOMALY>269.4190</MEAN_ANOMALY></meanElements><tleParameters><EPHEMERIS_TYPE>0</EPHEMERIS_TYPE><CLASSIFICATION_TYPE>U</CLASSIFICATION_TYPE><NORAD_CAT_ID>64514</NORAD_CAT_ID><ELEMENT_SET_NO>999</ELEMENT_SET_NO><REV_AT_EPOCH>3039</REV_AT_EPOCH><BSTAR>-.22696942E-2</BSTAR><MEAN_MOTION_DOT>-.17421E-3</MEAN_MOTION_DOT><MEAN_MOTION_DDOT>0</MEAN_MOTION_DDOT></tleParameters></data></segment></body></omm>
<omm id="CCSDS_OMM_VERS" version="2.0">
<header><CREATION_DATE/><ORIGINATOR/></header><body><segment><metadata><OBJECT_NAME>KUIPER-00055</OBJECT_NAME><OBJECT_ID>2025-134R</OBJECT_ID><CENTER_NAME>EARTH</CENTER_NAME><REF_FRAME>TEME</REF_FRAME><TIME_SYSTEM>UTC</TIME_SYSTEM><MEAN_ELEMENT_THEORY>SGP4</MEAN_ELEMENT_THEORY></metadata><data><meanElements><EPOCH>2026-01-01T17:57:46.348704</EPOCH><MEAN_MOTION>15.18393084</MEAN_MOTION><ECCENTRICITY>.00019619</ECCENTRICITY><INCLINATION>51.8893</INCLINATION><RA_OF_ASC_NODE>134.6015</RA_OF_ASC_NODE><ARG_OF_PERICENTER>271.0306</ARG_OF_PERICENTER><MEAN_ANOMALY>89.0448</MEAN_ANOMALY></meanElements><tleParameters><EPHEMERIS_TYPE>0</EPHEMERIS_TYPE><CLASSIFICATION_TYPE>U</CLASSIFICATION_TYPE><NORAD_CAT_ID>64515</NORAD_CAT_ID><ELEMENT_SET_NO>999</ELEMENT_SET_NO><REV_AT_EPOCH>3064</REV_AT_EPOCH><BSTAR>.14202452E-2</BSTAR><MEAN_MOTION_DOT>.2939E-3</MEAN_MOTION_DOT><MEAN_MOTION_DDOT>0</MEAN_MOTION_DDOT></tleParameters></data></segment></body></omm>
<omm id="CCSDS_OMM_VERS" version="2.0">
<header><CREATION_DATE/><ORIGINATOR/></header><body><segment><metadata><OBJECT_NAME>KUIPER-00056</OBJECT_NAME><OBJECT_ID>2025-134S</OBJECT_ID><CENTER_NAME>EARTH</CENTER_NAME><REF_FRAME>TEME</REF_FRAME><TIME_SYSTEM>UTC</TIME_SYSTEM><MEAN_ELEMENT_THEORY>SGP4</MEAN_ELEMENT_THEORY></metadata><data><meanElements><EPOCH>2026-01-01T15:35:36.098304</EPOCH><MEAN_MOTION>14.79948826</MEAN_MOTION><ECCENTRICITY>.0002437</ECCENTRICITY><INCLINATION>51.9001</INCLINATION><RA_OF_ASC_NODE>160.5756</RA_OF_ASC_NODE><ARG_OF_PERICENTER>72.7405</ARG_OF_PERICENTER><MEAN_ANOMALY>287.3824</MEAN_ANOMALY></meanElements><tleParameters><EPHEMERIS_TYPE>0</EPHEMERIS_TYPE><CLASSIFICATION_TYPE>U</CLASSIFICATION_TYPE><NORAD_CAT_ID>64516</NORAD_CAT_ID><ELEMENT_SET_NO>999</ELEMENT_SET_NO><REV_AT_EPOCH>3027</REV_AT_EPOCH><BSTAR>.20775261E-3</BSTAR><MEAN_MOTION_DOT>.1363E-4</MEAN_MOTION_DOT><MEAN_MOTION_DDOT>0</MEAN_MOTION_DDOT></tleParameters></data></segment></body></omm>
<omm id="CCSDS_OMM_VERS" version="2.0">
<header><CREATION_DATE/><ORIGINATOR/></header><body><segment><metadata><OBJECT_NAME>KUIPER-00057</OBJECT_NAME><OBJECT_ID>2025-134T</OBJECT_ID><CENTER_NAME>EARTH</CENTER_NAME><REF_FRAME>TEME</REF_FRAME><TIME_SYSTEM>UTC</TIME_SYSTEM><MEAN_ELEMENT_THEORY>SGP4</MEAN_ELEMENT_THEORY></metadata><data><meanElements><EPOCH>2026-01-01T18:38:29.207616</EPOCH><MEAN_MOTION>14.79959601</MEAN_MOTION><ECCENTRICITY>.0009283</ECCENTRICITY><INCLINATION>51.8992</INCLINATION><RA_OF_ASC_NODE>167.4960</RA_OF_ASC_NODE><ARG_OF_PERICENTER>59.1773</ARG_OF_PERICENTER><MEAN_ANOMALY>301.0102</MEAN_ANOMALY></meanElements><tleParameters><EPHEMERIS_TYPE>0</EPHEMERIS_TYPE><CLASSIFICATION_TYPE>U</CLASSIFICATION_TYPE><NORAD_CAT_ID>64517</NORAD_CAT_ID><ELEMENT_SET_NO>999</ELEMENT_SET_NO><REV_AT_EPOCH>3018</REV_AT_EPOCH><BSTAR>.1797456E-3</BSTAR><MEAN_MOTION_DOT>.1149E-4</MEAN_MOTION_DOT><MEAN_MOTION_DDOT>0</MEAN_MOTION_DDOT></tleParameters></data></segment></body></omm>

</ndm>
